BEIDOU-2 G7 (C03)       
1 41586U 16037A   26190.66198130 -.00000341  00000+0  00000+0 0  9990
2 41586   1.7726  69.5133 0006073   6.8145 199.9992  1.00264599  7119
BEIDOU-3 M1 (C19)       
1 43001U 17069A   26190.14824340 -.00000046  00000+0  00000+0 0  9994
2 43001  56.7103  62.3623 0009413 327.9013  32.1028  1.86231366 59013
BEIDOU-3 M2 (C20)       
1 43002U 17069B   26187.93923990 -.00000042  00000+0  00000+0 0  9995
2 43002  56.7079  62.4701 0008338 357.4299   2.6295  1.86230659 58968
BEIDOU-3 M7 (C27)       
1 43107U 18003A   26189.29199427 -.00000066  00000+0  00000+0 0  9997
2 43107  54.3078 301.5795 0004480  98.0554 262.0167  1.86228392 57749
BEIDOU-3 M8 (C28)       
1 43108U 18003B   26189.77338495 -.00000067  00000+0  00000+0 0  9992
2 43108  54.3003 301.5443 0002969 259.3188 100.6682  1.86231270 57763
BEIDOU-3 M4 (C22)       
1 43207U 18018A   26190.21653484 -.00000047  00000+0  00000+0 0  9995
2 43207  56.6695  62.4232 0007451  27.0814 333.0189  1.86231289 57158
BEIDOU-3 M3 (C21)       
1 43208U 18018B   26187.59825105 -.00000041  00000+0  00000+0 0  9998
2 43208  56.6666  62.5134 0007880 344.5989  15.4415  1.86231254 57105
BEIDOU-3 M9 (C29)       
1 43245U 18029A   26189.42706904 -.00000063  00000+0  00000+0 0  9994
2 43245  54.1736 299.2068 0001095 182.3611 177.6623  1.86228291 56292
BEIDOU-3 M10 (C30)      
1 43246U 18029B   26189.36131538 -.00000063  00000+0  00000+0 0  9993
2 43246  54.1715 299.2350 0003338  36.6735 323.3733  1.86229516 56275
BEIDOU-2 IGSO-7 (C16)   
1 43539U 18057A   26182.89122331 -.00000033  00000+0  00000+0 0  9998
2 43539  55.1981 162.9292 0104946 237.8611 308.6338  1.00246939 29273
BEIDOU-3 M5 (C23)       
1 43581U 18062A   26189.58528560  .00000121  00000+0  00000+0 0  9995
2 43581  54.0866 181.5769 0005712 292.3518  67.5967  1.86228617 54037
BEIDOU-3 M6 (C24)       
1 43582U 18062B   26188.37493262  .00000119  00000+0  00000+0 0  9999
2 43582  54.0860 181.6071 0005088   9.1977 350.8186  1.86227975 54013
BEIDOU-3 M12 (C26)      
1 43602U 18067A   26190.99815852  .00000111  00000+0  00000+0 0  9993
2 43602  54.1817 180.2667 0007905  30.5943 329.4569  1.86227772 53545
